[
    {
        "Altitude(m)": 610399.569822406,
        "Argument of Periapsis(deg)": 0.0,
        "Eccentricity": 0.0,
        "Inclination(deg)": 60.0,
        "Latitude(deg)": 52.111448010562796,
        "Longitude(deg)": 132.5843713462002,
        "Mean Anomaly(deg)": 65.45449999999998,
        "RAAN(deg)": 184.99999999999997,
        "Satellite Name": "Test1 818",
        "Satellite Number": 818,
        "Semi-Major Axis(m)": 6980739.136638005,
        "Time(s)": 0
    },
    {
        "Altitude(m)": 610481.7205192465,
        "Argument of Periapsis(deg)": 0.00010418945913296404,
        "Eccentricity": 0.0,
        "Inclination(deg)": 60.0,
        "Latitude(deg)": 52.47104954615284,
        "Longitude(deg)": 133.3665104153513,
        "Mean Anomaly(deg)": 66.07460614546183,
        "RAAN(deg)": 184.99957995086024,
        "Satellite Name": "Test1 818",
        "Satellite Number": 818,
        "Semi-Major Axis(m)": 6980739.136638005,
        "Time(s)": 10
    }
]